[{"OBJECT_NAME":"ONEWEB-0296","OBJECT_ID":"2021-075L","EPOCH":"2026-03-09T21:31:32.308608","MEAN_MOTION":13.12443009,"ECCENTRICITY":0.00020028,"INCLINATION":87.9007,"RA_OF_ASC_NODE":10.3675,"ARG_OF_PERICENTER":70.4296,"MEAN_ANOMALY":289.7049,"EPHEMERIS_TYPE":0,"CLASSIFICATION_TYPE":"U","NORAD_CAT_ID":49085,"ELEMENT_SET_NO":999,"REV_AT_EPOCH":22155,"BSTAR":0.0015030332,"MEAN_MOTION_DOT":5.53e-6,"MEAN_MOTION_DDOT":0},{"OBJECT_NAME":"THOR ABLESTAR DEB","OBJECT_ID":"1961-015MR","EPOCH":"2026-03-05T04:25:30.321408","MEAN_MOTION":13.14671558,"ECCENTRICITY":0.046248,"INCLINATION":66.6446,"RA_OF_ASC_NODE":342.9598,"ARG_OF_PERICENTER":339.5546,"MEAN_ANOMALY":18.7494,"EPHEMERIS_TYPE":0,"CLASSIFICATION_TYPE":"U","NORAD_CAT_ID":48813,"ELEMENT_SET_NO":999,"REV_AT_EPOCH":58740,"BSTAR":0.0016603,"MEAN_MOTION_DOT":9.98e-6,"MEAN_MOTION_DDOT":0}]
